[{"OBJECT_NAME":"ONEWEB-0400","OBJECT_ID":"2021-132M","EPOCH":"2026-03-05T17:46:51.200832","MEAN_MOTION":13.18686626,"ECCENTRICITY":0.00019916,"INCLINATION":87.9255,"RA_OF_ASC_NODE":355.9853,"ARG_OF_PERICENTER":80.6961,"MEAN_ANOMALY":279.4396,"EPHEMERIS_TYPE":0,"CLASSIFICATION_TYPE":"U","NORAD_CAT_ID":50480,"ELEMENT_SET_NO":999,"REV_AT_EPOCH":20797,"BSTAR":2.3456822e-5,"MEAN_MOTION_DOT":2.2e-7,"MEAN_MOTION_DDOT":0},{"OBJECT_NAME":"ONEWEB-0401","OBJECT_ID":"2021-132N","EPOCH":"2026-03-05T20:40:13.499040","MEAN_MOTION":13.1868721,"ECCENTRICITY":0.00015843,"INCLINATION":87.9252,"RA_OF_ASC_NODE":355.957,"ARG_OF_PERICENTER":81.3129,"MEAN_ANOMALY":278.8183,"EPHEMERIS_TYPE":0,"CLASSIFICATION_TYPE":"U","NORAD_CAT_ID":50481,"ELEMENT_SET_NO":999,"REV_AT_EPOCH":20799,"BSTAR":5.300118e-6,"MEAN_MOTION_DOT":1.5e-7,"MEAN_MOTION_DDOT":0},{"OBJECT_NAME":"ONEWEB-0402","OBJECT_ID":"2021-132P","EPOCH":"2026-03-05T17:58:41.525472","MEAN_MOTION":13.1870105,"ECCENTRICITY":0.00012515,"INCLINATION":87.9252,"RA_OF_ASC_NODE":355.9705,"ARG_OF_PERICENTER":87.598,"MEAN_ANOMALY":272.5295,"EPHEMERIS_TYPE":0,"CLASSIFICATION_TYPE":"U","NORAD_CAT_ID":50482,"ELEMENT_SET_NO":999,"REV_AT_EPOCH":20800,"BSTAR":0.0044242268,"MEAN_MOTION_DOT":1.758e-5,"MEAN_MOTION_DDOT":0},{"OBJECT_NAME":"ONEWEB-0403","OBJECT_ID":"2021-132Q","EPOCH":"2026-03-05T20:23:37.064256","MEAN_MOTION":13.18686206,"ECCENTRICITY":0.0001814,"INCLINATION":87.9252,"RA_OF_ASC_NODE":355.9739,"ARG_OF_PERICENTER":74.7543,"MEAN_ANOMALY":285.379,"EPHEMERIS_TYPE":0,"CLASSIFICATION_TYPE":"U","NORAD_CAT_ID":50483,"ELEMENT_SET_NO":999,"REV_AT_EPOCH":20797,"BSTAR":0.00012903708,"MEAN_MOTION_DOT":6.4e-7,"MEAN_MOTION_DDOT":0},{"OBJECT_NAME":"ONEWEB-0404","OBJECT_ID":"2021-132R","EPOCH":"2026-03-05T22:47:05.851392","MEAN_MOTION":13.11416798,"ECCENTRICITY":0.00018067,"INCLINATION":87.8855,"RA_OF_ASC_NODE":41.5968,"ARG_OF_PERICENTER":73.3534,"MEAN_ANOMALY":286.7792,"EPHEMERIS_TYPE":0,"CLASSIFICATION_TYPE":"U","NORAD_CAT_ID":50484,"ELEMENT_SET_NO":999,"REV_AT_EPOCH":20216,"BSTAR":-0.001086419,"MEAN_MOTION_DOT":-3.72e-6,"MEAN_MOTION_DDOT":0},{"OBJECT_NAME":"ONEWEB-0405","OBJECT_ID":"2021-132S","EPOCH":"2026-03-05T20:44:57.131232","MEAN_MOTION":13.18664963,"ECCENTRICITY":0.00022274,"INCLINATION":87.9251,"RA_OF_ASC_NODE":355.955,"ARG_OF_PERICENTER":78.4898,"MEAN_ANOMALY":281.6484,"EPHEMERIS_TYPE":0,"CLASSIFICATION_TYPE":"U","NORAD_CAT_ID":50485,"ELEMENT_SET_NO":999,"REV_AT_EPOCH":20837,"BSTAR":0.00017003825,"MEAN_MOTION_DOT":8.0e-7,"MEAN_MOTION_DDOT":0},{"OBJECT_NAME":"ONEWEB-0406","OBJECT_ID":"2021-132T","EPOCH":"2026-03-05T20:30:43.707456","MEAN_MOTION":13.18687655,"ECCENTRICITY":0.00017854,"INCLINATION":87.9246,"RA_OF_ASC_NODE":355.9825,"ARG_OF_PERICENTER":63.1966,"MEAN_ANOMALY":296.9348,"EPHEMERIS_TYPE":0,"CLASSIFICATION_TYPE":"U","NORAD_CAT_ID":50486,"ELEMENT_SET_NO":999,"REV_AT_EPOCH":20800,"BSTAR":2.2666224e-5,"MEAN_MOTION_DOT":2.2e-7,"MEAN_MOTION_DDOT":0},{"OBJECT_NAME":"ONEWEB-0407","OBJECT_ID":"2021-132U","EPOCH":"2026-03-05T20:21:14.126688","MEAN_MOTION":13.18686027,"ECCENTRICITY":0.00017262,"INCLINATION":87.9263,"RA_OF_ASC_NODE":355.9657,"ARG_OF_PERICENTER":87.8409,"MEAN_ANOMALY":272.2921,"EPHEMERIS_TYPE":0,"CLASSIFICATION_TYPE":"U","NORAD_CAT_ID":50487,"ELEMENT_SET_NO":999,"REV_AT_EPOCH":20794,"BSTAR":2.0537606e-5,"MEAN_MOTION_DOT":2.1e-7,"MEAN_MOTION_DDOT":0},{"OBJECT_NAME":"ONEWEB-0409","OBJECT_ID":"2021-132V","EPOCH":"2026-03-05T22:44:39.473376","MEAN_MOTION":13.1141779,"ECCENTRICITY":0.00018734,"INCLINATION":87.8861,"RA_OF_ASC_NODE":41.5779,"ARG_OF_PERICENTER":75.6983,"MEAN_ANOMALY":284.4353,"EPHEMERIS_TYPE":0,"CLASSIFICATION_TYPE":"U","NORAD_CAT_ID":50488,"ELEMENT_SET_NO":999,"REV_AT_EPOCH":20205,"BSTAR":-0.0010818547,"MEAN_MOTION_DOT":-3.71e-6,"MEAN_MOTION_DDOT":0},{"OBJECT_NAME":"ONEWEB-0412","OBJECT_ID":"2021-132W","EPOCH":"2026-03-05T18:15:20.686176","MEAN_MOTION":13.18686652,"ECCENTRICITY":0.00015081,"INCLINATION":87.9251,"RA_OF_ASC_NODE":355.9982,"ARG_OF_PERICENTER":83.083,"MEAN_ANOMALY":277.0474,"EPHEMERIS_TYPE":0,"CLASSIFICATION_TYPE":"U","NORAD_CAT_ID":50489,"ELEMENT_SET_NO":999,"REV_AT_EPOCH":20802,"BSTAR":0.00023183551,"MEAN_MOTION_DOT":1.04e-6,"MEAN_MOTION_DDOT":0},{"OBJECT_NAME":"ONEWEB-0413","OBJECT_ID":"2021-132X","EPOCH":"2026-03-05T05:37:38.651232","MEAN_MOTION":13.1868631,"ECCENTRICITY":0.0001615,"INCLINATION":87.9242,"RA_OF_ASC_NODE":356.1071,"ARG_OF_PERICENTER":88.3107,"MEAN_ANOMALY":271.821,"EPHEMERIS_TYPE":0,"CLASSIFICATION_TYPE":"U","NORAD_CAT_ID":50490,"ELEMENT_SET_NO":999,"REV_AT_EPOCH":20789,"BSTAR":0.00026081,"MEAN_MOTION_DOT":1.16e-6,"MEAN_MOTION_DDOT":0},{"OBJECT_NAME":"ONEWEB-0414","OBJECT_ID":"2021-132Y","EPOCH":"2026-03-05T18:01:04.609920","MEAN_MOTION":13.18688317,"ECCENTRICITY":0.0001592,"INCLINATION":87.9251,"RA_OF_ASC_NODE":355.9764,"ARG_OF_PERICENTER":77.2468,"MEAN_ANOMALY":282.8842,"EPHEMERIS_TYPE":0,"CLASSIFICATION_TYPE":"U","NORAD_CAT_ID":50491,"ELEMENT_SET_NO":999,"REV_AT_EPOCH":20799,"BSTAR":8.4690104e-5,"MEAN_MOTION_DOT":4.6e-7,"MEAN_MOTION_DDOT":0},{"OBJECT_NAME":"ONEWEB-0417","OBJECT_ID":"2021-132Z","EPOCH":"2026-03-05T18:12:56.984832","MEAN_MOTION":13.18690661,"ECCENTRICITY":0.0001904,"INCLINATION":87.924,"RA_OF_ASC_NODE":356.0033,"ARG_OF_PERICENTER":71.4374,"MEAN_ANOMALY":288.6965,"EPHEMERIS_TYPE":0,"CLASSIFICATION_TYPE":"U","NORAD_CAT_ID":50492,"ELEMENT_SET_NO":999,"REV_AT_EPOCH":20797,"BSTAR":-0.0029443285,"MEAN_MOTION_DOT":-1.148e-5,"MEAN_MOTION_DDOT":0},{"OBJECT_NAME":"ONEWEB-0418","OBJECT_ID":"2021-132AA","EPOCH":"2026-03-05T12:59:13.702848","MEAN_MOTION":13.18684749,"ECCENTRICITY":0.0001921,"INCLINATION":87.9253,"RA_OF_ASC_NODE":356.0356,"ARG_OF_PERICENTER":67.2536,"MEAN_ANOMALY":292.8799,"EPHEMERIS_TYPE":0,"CLASSIFICATION_TYPE":"U","NORAD_CAT_ID":50493,"ELEMENT_SET_NO":999,"REV_AT_EPOCH":20800,"BSTAR":-4.2996e-5,"MEAN_MOTION_DOT":-4.0e-8,"MEAN_MOTION_DDOT":0},{"OBJECT_NAME":"ONEWEB-0419","OBJECT_ID":"2021-132AB","EPOCH":"2026-03-05T20:42:37.320480","MEAN_MOTION":13.1868621,"ECCENTRICITY":0.00020587,"INCLINATION":87.9251,"RA_OF_ASC_NODE":355.972,"ARG_OF_PERICENTER":74.7507,"MEAN_ANOMALY":285.3853,"EPHEMERIS_TYPE":0,"CLASSIFICATION_TYPE":"U","NORAD_CAT_ID":50494,"ELEMENT_SET_NO":999,"REV_AT_EPOCH":20796,"BSTAR":0.00011417154,"MEAN_MOTION_DOT":5.8e-7,"MEAN_MOTION_DDOT":0},{"OBJECT_NAME":"ONEWEB-0420","OBJECT_ID":"2021-132AC","EPOCH":"2026-03-05T18:03:28.507392","MEAN_MOTION":13.18685744,"ECCENTRICITY":0.0001826,"INCLINATION":87.9245,"RA_OF_ASC_NODE":356.0058,"ARG_OF_PERICENTER":82.9107,"MEAN_ANOMALY":277.2233,"EPHEMERIS_TYPE":0,"CLASSIFICATION_TYPE":"U","NORAD_CAT_ID":50495,"ELEMENT_SET_NO":999,"REV_AT_EPOCH":20794,"BSTAR":0.00011448467,"MEAN_MOTION_DOT":5.8e-7,"MEAN_MOTION_DDOT":0},{"OBJECT_NAME":"ONEWEB-0421","OBJECT_ID":"2021-132AD","EPOCH":"2026-03-05T19:43:13.956384","MEAN_MOTION":13.18685386,"ECCENTRICITY":0.00015126,"INCLINATION":87.9254,"RA_OF_ASC_NODE":355.984,"ARG_OF_PERICENTER":76.4284,"MEAN_ANOMALY":283.7016,"EPHEMERIS_TYPE":0,"CLASSIFICATION_TYPE":"U","NORAD_CAT_ID":50496,"ELEMENT_SET_NO":999,"REV_AT_EPOCH":20799,"BSTAR":-0.00031990214,"MEAN_MOTION_DOT":-1.13e-6,"MEAN_MOTION_DDOT":0}]
