ONEWEB-0400             
1 50480U 21132M   26064.74087038  .00000022  00000+0  23457-4 0  9999
2 50480  87.9255 355.9853 0001991  80.6961 279.4396 13.18686626207975
ONEWEB-0401             
1 50481U 21132N   26064.86126735  .00000015  00000+0  53001-5 0  9992
2 50481  87.9252 355.9570 0001584  81.3129 278.8183 13.18687210207990
ONEWEB-0402             
1 50482U 21132P   26064.74909173  .00001758  00000+0  44242-2 0  9994
2 50482  87.9252 355.9705 0001251  87.5980 272.5295 13.18701050208002
ONEWEB-0403             
1 50483U 21132Q   26064.84973454  .00000064  00000+0  12904-3 0  9999
2 50483  87.9252 355.9739 0001814  74.7543 285.3790 13.18686206207970
ONEWEB-0404             
1 50484U 21132R   26064.94937328 -.00000372  00000+0 -10864-2 0  9997
2 50484  87.8855  41.5968 0001806  73.3534 286.7792 13.11416798202160
ONEWEB-0405             
1 50485U 21132S   26064.86455013  .00000080  00000+0  17004-3 0  9993
2 50485  87.9251 355.9550 0002227  78.4898 281.6484 13.18664963208375
ONEWEB-0406             
1 50486U 21132T   26064.85467254  .00000022  00000+0  22666-4 0  9990
2 50486  87.9246 355.9825 0001785  63.1966 296.9348 13.18687655208001
ONEWEB-0407             
1 50487U 21132U   26064.84808017  .00000021  00000+0  20538-4 0  9991
2 50487  87.9263 355.9657 0001726  87.8409 272.2921 13.18686027207942
ONEWEB-0409             
1 50488U 21132V   26064.94767909 -.00000371  00000+0 -10819-2 0  9996
2 50488  87.8861  41.5779 0001873  75.6983 284.4353 13.11417790202057
ONEWEB-0412             
1 50489U 21132W   26064.76065609  .00000104  00000+0  23184-3 0  9997
2 50489  87.9251 355.9982 0001508  83.0830 277.0474 13.18686652208026
ONEWEB-0413             
1 50490U 21132X   26064.23447513  .00000116  00000+0  26081-3 0  9991
2 50490  87.9242 356.1071 0001615  88.3107 271.8210 13.18686310207899
ONEWEB-0414             
1 50491U 21132Y   26064.75074780  .00000046  00000+0  84690-4 0  9994
2 50491  87.9251 355.9764 0001592  77.2468 282.8842 13.18688317207990
ONEWEB-0417             
1 50492U 21132Z   26064.75899288 -.00001148  00000+0 -29443-2 0  9992
2 50492  87.9240 356.0033 0001904  71.4374 288.6965 13.18690661207972
ONEWEB-0418             
1 50493U 21132AA  26064.54113082 -.00000004  00000+0 -42996-4 0  9991
2 50493  87.9253 356.0356 0001921  67.2536 292.8799 13.18684749208004
ONEWEB-0419             
1 50494U 21132AB  26064.86293195  .00000058  00000+0  11417-3 0  9991
2 50494  87.9251 355.9720 0002058  74.7507 285.3853 13.18686210207966
ONEWEB-0420             
1 50495U 21132AC  26064.75241328  .00000058  00000+0  11448-3 0  9995
2 50495  87.9245 356.0058 0001826  82.9107 277.2233 13.18685744207946
ONEWEB-0421             
1 50496U 21132AD  26064.82168931 -.00000113  00000+0 -31990-3 0  9990
2 50496  87.9254 355.9840 0001512  76.4284 283.7016 13.18685386207998
